[
    {
        "Altitude(m)": 706716.7906191282,
        "Argument of Periapsis(deg)": 0.006834072711976239,
        "Eccentricity": 0.0,
        "Inclination(deg)": 45.0,
        "Latitude(deg)": 42.52004541471894,
        "Longitude(deg)": -169.66194947952968,
        "Mean Anomaly(deg)": 72.37442998848849,
        "RAAN(deg)": 224.99354883512507,
        "Satellite Name": "Constellation 1 994",
        "Satellite Number": 994,
        "Semi-Major Axis(m)": 7083131.272910544,
        "Time(s)": 114
    },
    {
        "Altitude(m)": 706720.6961243339,
        "Argument of Periapsis(deg)": 0.006894020718221645,
        "Eccentricity": 0.0,
        "Inclination(deg)": 45.0,
        "Latitude(deg)": 42.53766445001173,
        "Longitude(deg)": -169.58737415531553,
        "Mean Anomaly(deg)": 72.43513112873838,
        "RAAN(deg)": 224.99349224595952,
        "Satellite Name": "Constellation 1 994",
        "Satellite Number": 994,
        "Semi-Major Axis(m)": 7083131.272910544,
        "Time(s)": 115
    },
    {
        "Altitude(m)": 706724.5904501224,
        "Argument of Periapsis(deg)": 0.006953968724467052,
        "Eccentricity": 0.0,
        "Inclination(deg)": 45.0,
        "Latitude(deg)": 42.5552293950143,
        "Longitude(deg)": -169.51275467824647,
        "Mean Anomaly(deg)": 72.49583226898828,
        "RAAN(deg)": 224.9934356567939,
        "Satellite Name": "Constellation 1 994",
        "Satellite Number": 994,
        "Semi-Major Axis(m)": 7083131.272910544,
        "Time(s)": 116
    },
    {
        "Altitude(m)": 706728.4735733753,
        "Argument of Periapsis(deg)": 0.007013916730712457,
        "Eccentricity": 0.0,
        "Inclination(deg)": 45.0,
        "Latitude(deg)": 42.57274018675202,
        "Longitude(deg)": -169.43809113228332,
        "Mean Anomaly(deg)": 72.55653340923818,
        "RAAN(deg)": 224.99337906762835,
        "Satellite Name": "Constellation 1 994",
        "Satellite Number": 994,
        "Semi-Major Axis(m)": 7083131.272910544,
        "Time(s)": 117
    },
    {
        "Altitude(m)": 706732.3454710469,
        "Argument of Periapsis(deg)": 0.007073864736957864,
        "Eccentricity": 0.0,
        "Inclination(deg)": 45.0,
        "Latitude(deg)": 42.590196762354246,
        "Longitude(deg)": -169.3633836019504,
        "Mean Anomaly(deg)": 72.61723454948812,
        "RAAN(deg)": 224.9933224784628,
        "Satellite Name": "Constellation 1 994",
        "Satellite Number": 994,
        "Semi-Major Axis(m)": 7083131.272910544,
        "Time(s)": 118
    },
    {
        "Altitude(m)": 706736.2061201456,
        "Argument of Periapsis(deg)": 0.0071338127432032696,
        "Eccentricity": 0.0,
        "Inclination(deg)": 45.0,
        "Latitude(deg)": 42.607599059055325,
        "Longitude(deg)": -169.28863234043277,
        "Mean Anomaly(deg)": 72.67793568973798,
        "RAAN(deg)": 224.99326588929722,
        "Satellite Name": "Constellation 1 994",
        "Satellite Number": 994,
        "Semi-Major Axis(m)": 7083131.272910544,
        "Time(s)": 119
    },
    {
        "Altitude(m)": 706740.0554977625,
        "Argument of Periapsis(deg)": 0.007193760749448674,
        "Eccentricity": 0.0,
        "Inclination(deg)": 45.0,
        "Latitude(deg)": 42.62494701419444,
        "Longitude(deg)": -169.21383709718813,
        "Mean Anomaly(deg)": 72.73863682998787,
        "RAAN(deg)": 224.99320930013167,
        "Satellite Name": "Constellation 1 994",
        "Satellite Number": 994,
        "Semi-Major Axis(m)": 7083131.272910544,
        "Time(s)": 120
    },
    {
        "Altitude(m)": 706743.8935810565,
        "Argument of Periapsis(deg)": 0.007253708755694079,
        "Eccentricity": 0.0,
        "Inclination(deg)": 45.0,
        "Latitude(deg)": 42.64224056521818,
        "Longitude(deg)": -169.13899812652963,
        "Mean Anomaly(deg)": 72.7993379702378,
        "RAAN(deg)": 224.99315271096611,
        "Satellite Name": "Constellation 1 994",
        "Satellite Number": 994,
        "Semi-Major Axis(m)": 7083131.272910544,
        "Time(s)": 121
    },
    {
        "Altitude(m)": 706747.720347256,
        "Argument of Periapsis(deg)": 0.0073136567619394854,
        "Eccentricity": 0.0,
        "Inclination(deg)": 45.0,
        "Latitude(deg)": 42.65947964968037,
        "Longitude(deg)": -169.06411551523786,
        "Mean Anomaly(deg)": 72.8600391104877,
        "RAAN(deg)": 224.9930961218005,
        "Satellite Name": "Constellation 1 994",
        "Satellite Number": 994,
        "Semi-Major Axis(m)": 7083131.272910544,
        "Time(s)": 122
    },
    {
        "Altitude(m)": 706751.5357736521,
        "Argument of Periapsis(deg)": 0.0073736047681848904,
        "Eccentricity": 0.0,
        "Inclination(deg)": 45.0,
        "Latitude(deg)": 42.6766642052432,
        "Longitude(deg)": -168.98918935065774,
        "Mean Anomaly(deg)": 72.92074025073754,
        "RAAN(deg)": 224.99303953263495,
        "Satellite Name": "Constellation 1 994",
        "Satellite Number": 994,
        "Semi-Major Axis(m)": 7083131.272910544,
        "Time(s)": 123
    },
    {
        "Altitude(m)": 706755.3398376176,
        "Argument of Periapsis(deg)": 0.007433552774430298,
        "Eccentricity": 0.0,
        "Inclination(deg)": 45.0,
        "Latitude(deg)": 42.69379416967809,
        "Longitude(deg)": -168.91421972069887,
        "Mean Anomaly(deg)": 72.98144139098746,
        "RAAN(deg)": 224.99298294346937,
        "Satellite Name": "Constellation 1 994",
        "Satellite Number": 994,
        "Semi-Major Axis(m)": 7083131.272910544,
        "Time(s)": 124
    },
    {
        "Altitude(m)": 706759.1325165875,
        "Argument of Periapsis(deg)": 0.007493500780675703,
        "Eccentricity": 0.0,
        "Inclination(deg)": 45.0,
        "Latitude(deg)": 42.71086948086669,
        "Longitude(deg)": -168.83920671383584,
        "Mean Anomaly(deg)": 73.0421425312374,
        "RAAN(deg)": 224.99292635430382,
        "Satellite Name": "Constellation 1 994",
        "Satellite Number": 994,
        "Semi-Major Axis(m)": 7083131.272910544,
        "Time(s)": 125
    },
    {
        "Altitude(m)": 706762.9137880686,
        "Argument of Periapsis(deg)": 0.007553448786921108,
        "Eccentricity": 0.0,
        "Inclination(deg)": 45.0,
        "Latitude(deg)": 42.727890076802,
        "Longitude(deg)": -168.76415058720525,
        "Mean Anomaly(deg)": 73.10284367148728,
        "RAAN(deg)": 224.99286976513827,
        "Satellite Name": "Constellation 1 994",
        "Satellite Number": 994,
        "Semi-Major Axis(m)": 7083131.272910544,
        "Time(s)": 126
    },
    {
        "Altitude(m)": 706766.6836296468,
        "Argument of Periapsis(deg)": 0.007613396793166514,
        "Eccentricity": 0.0,
        "Inclination(deg)": 45.0,
        "Latitude(deg)": 42.744855895588024,
        "Longitude(deg)": -168.68905109421783,
        "Mean Anomaly(deg)": 73.1635448117372,
        "RAAN(deg)": 224.99281317597266,
        "Satellite Name": "Constellation 1 994",
        "Satellite Number": 994,
        "Semi-Major Axis(m)": 7083131.272910544,
        "Time(s)": 127
    },
    {
        "Altitude(m)": 706770.4420189618,
        "Argument of Periapsis(deg)": 0.007673344799411918,
        "Eccentricity": 0.0,
        "Inclination(deg)": 45.0,
        "Latitude(deg)": 42.76176687544264,
        "Longitude(deg)": -168.6139084931406,
        "Mean Anomaly(deg)": 73.22424595198707,
        "RAAN(deg)": 224.9927565868071,
        "Satellite Name": "Constellation 1 994",
        "Satellite Number": 994,
        "Semi-Major Axis(m)": 7083131.272910544,
        "Time(s)": 128
    },
    {
        "Altitude(m)": 706774.18893374,
        "Argument of Periapsis(deg)": 0.007733292805657325,
        "Eccentricity": 0.0,
        "Inclination(deg)": 45.0,
        "Latitude(deg)": 42.778622954697205,
        "Longitude(deg)": -168.5387228747087,
        "Mean Anomaly(deg)": 73.28494709223702,
        "RAAN(deg)": 224.99269999764155,
        "Satellite Name": "Constellation 1 994",
        "Satellite Number": 994,
        "Semi-Major Axis(m)": 7083131.272910544,
        "Time(s)": 129
    },
    {
        "Altitude(m)": 706777.9243517662,
        "Argument of Periapsis(deg)": 0.00779324081190273,
        "Eccentricity": 0.0,
        "Inclination(deg)": 45.0,
        "Latitude(deg)": 42.795424071797704,
        "Longitude(deg)": -168.46349433022309,
        "Mean Anomaly(deg)": 73.34564823248688,
        "RAAN(deg)": 224.99264340847597,
        "Satellite Name": "Constellation 1 994",
        "Satellite Number": 994,
        "Semi-Major Axis(m)": 7083131.272910544,
        "Time(s)": 130
    },
    {
        "Altitude(m)": 706781.6482509067,
        "Argument of Periapsis(deg)": 0.007853188818148135,
        "Eccentricity": 0.0,
        "Inclination(deg)": 45.0,
        "Latitude(deg)": 42.81217016530577,
        "Longitude(deg)": -168.38822295155,
        "Mean Anomaly(deg)": 73.40634937273677,
        "RAAN(deg)": 224.99258681931042,
        "Satellite Name": "Constellation 1 994",
        "Satellite Number": 994,
        "Semi-Major Axis(m)": 7083131.272910544,
        "Time(s)": 131
    },
    {
        "Altitude(m)": 706785.3606090938,
        "Argument of Periapsis(deg)": 0.007913136824393542,
        "Eccentricity": 0.0,
        "Inclination(deg)": 45.0,
        "Latitude(deg)": 42.82886117389954,
        "Longitude(deg)": -168.3129088311213,
        "Mean Anomaly(deg)": 73.46705051298667,
        "RAAN(deg)": 224.9925302301448,
        "Satellite Name": "Constellation 1 994",
        "Satellite Number": 994,
        "Semi-Major Axis(m)": 7083131.272910544,
        "Time(s)": 132
    }
]